{
    "RECORDS": [
        {
            "CCSDS_OPM_VERS": 16425.39,
            "CREATION_DATE": "2019-10-15T21:52:53.770Z",
            "ORIGINATOR": "Grady - Tremblay",
            "OBJECT_NAME": "E}XiaFFuwr",
            "OBJECT_ID": "6{9VJ\\+m4y",
            "CENTER_NAME": "ORX==5xB\\\\",
            "REF_FRAME": 9,
            "REF_FRAME_EPOCH": "2080-02-01T05:25:56.195Z",
            "TIME_SYSTEM": 2,
            "COMMENT": "GcX6HSZ@[2",
            "EPOCH": "2079-09-04T20:28:45.526Z",
            "X": 57100.46,
            "Y": 50051.1,
            "Z": 72543.64,
            "X_DOT": 7103.34,
            "Y_DOT": 98607.79,
            "Z_DOT": 56224.91,
            "SEMI_MAJOR_AXIS": 30523.85,
            "ECCENTRICITY": 62741.04,
            "INCLINATION": 32214.64,
            "RA_OF_ASC_NODE": 17726.82,
            "ARG_OF_PERICENTER": 75812.78,
            "TRUE_ANOMALY": 45121.87,
            "MEAN_ANOMALY": 44385.96,
            "GM": 47436.15,
            "MASS": 9626.65,
            "SOLAR_RAD_AREA": 74306.23,
            "SOLAR_RAD_COEFF": 2402.54,
            "DRAG_AREA": 54926.22,
            "DRAG_COEFF": 87376.3,
            "COV_REF_FRAME": 0,
            "CX_X": 93554.78,
            "CY_X": 29682.23,
            "CY_Y": 41991,
            "CZ_X": 94139.04,
            "CZ_Y": 85412.66,
            "CZ_Z": 58576.15,
            "CX_DOT_X": 34729.84,
            "CX_DOT_Y": 88922.31,
            "CX_DOT_Z": 42123.77,
            "CX_DOT_X_DOT": 95831.35,
            "CY_DOT_X": 73109.75,
            "CY_DOT_Y": 14286.72,
            "CY_DOT_Z": 68143.2,
            "CY_DOT_X_DOT": 61022.47,
            "CY_DOT_Y_DOT": 24335.22,
            "CZ_DOT_X": 7433.98,
            "CZ_DOT_Y": 16222.75,
            "CZ_DOT_Z": 89557.22,
            "CZ_DOT_X_DOT": 29329.74,
            "CZ_DOT_Y_DOT": 91956.89,
            "CZ_DOT_Z_DOT": 59465.35,
            "MANEUVERS": [
                {
                    "MAN_EPOCH_IGNITION": "2090-11-03T07:46:53.518Z",
                    "MAN_DURATION": 7572.12,
                    "MAN_DELTA_MASS": 77.68,
                    "MAN_REF_FRAME": 1,
                    "MAN_DV_1": 83648.14,
                    "MAN_DV_2": 22956.32,
                    "MAN_DV_3": 44947.6
                },
                {
                    "MAN_EPOCH_IGNITION": "2020-06-30T21:54:45.699Z",
                    "MAN_DURATION": 71692.59,
                    "MAN_DELTA_MASS": 60011.98,
                    "MAN_REF_FRAME": 1,
                    "MAN_DV_1": 20589.99,
                    "MAN_DV_2": 78102.11,
                    "MAN_DV_3": 26310.09
                }
            ],
            "USER_DEFINED_BIP_0044_TYPE": 3951710247,
            "USER_DEFINED_OBJECT_DESIGNATOR": "RRp0M+Wp:X",
            "USER_DEFINED_EARTH_MODEL": "'T{fojL%jg",
            "USER_DEFINED_EPOCH_TIMESTAMP": 78878.34,
            "USER_DEFINED_EPOCH_MICROSECONDS": 45448.98
        },
        {
            "CCSDS_OPM_VERS": 89517.88,
            "CREATION_DATE": "2024-01-17T02:12:40.299Z",
            "ORIGINATOR": "Fahey, Wolf and Ondricka",
            "OBJECT_NAME": "f629)E7tA'",
            "OBJECT_ID": "Xk%B_sKi&J",
            "CENTER_NAME": ".?vv&7/@4d",
            "REF_FRAME": 1,
            "REF_FRAME_EPOCH": "2070-02-07T00:48:34.929Z",
            "TIME_SYSTEM": 3,
            "COMMENT": "?yrU8f)HiF",
            "EPOCH": "2053-07-17T14:38:01.363Z",
            "X": 1193.85,
            "Y": 86078.31,
            "Z": 84905.93,
            "X_DOT": 9353.98,
            "Y_DOT": 71966.9,
            "Z_DOT": 13845.22,
            "SEMI_MAJOR_AXIS": 62009.67,
            "ECCENTRICITY": 57768.67,
            "INCLINATION": 85143.4,
            "RA_OF_ASC_NODE": 57764.88,
            "ARG_OF_PERICENTER": 90000.34,
            "TRUE_ANOMALY": 18629.24,
            "MEAN_ANOMALY": 81134.02,
            "GM": 72994.97,
            "MASS": 90136.24,
            "SOLAR_RAD_AREA": 86794.06,
            "SOLAR_RAD_COEFF": 98771.28,
            "DRAG_AREA": 19104,
            "DRAG_COEFF": 6058.58,
            "COV_REF_FRAME": 1,
            "CX_X": 46479.05,
            "CY_X": 19683.99,
            "CY_Y": 44062.49,
            "CZ_X": 62806.01,
            "CZ_Y": 46542.65,
            "CZ_Z": 68582.98,
            "CX_DOT_X": 88144.56,
            "CX_DOT_Y": 6826.99,
            "CX_DOT_Z": 49275.58,
            "CX_DOT_X_DOT": 1046.25,
            "CY_DOT_X": 49323.86,
            "CY_DOT_Y": 65457.29,
            "CY_DOT_Z": 34952.51,
            "CY_DOT_X_DOT": 22437.39,
            "CY_DOT_Y_DOT": 16718.85,
            "CZ_DOT_X": 8058.66,
            "CZ_DOT_Y": 5940.99,
            "CZ_DOT_Z": 39838.06,
            "CZ_DOT_X_DOT": 21806.87,
            "CZ_DOT_Y_DOT": 54559.48,
            "CZ_DOT_Z_DOT": 66543.5,
            "MANEUVERS": [
                {
                    "MAN_EPOCH_IGNITION": "2033-11-25T22:16:51.907Z",
                    "MAN_DURATION": 5996.83,
                    "MAN_DELTA_MASS": 90883.43,
                    "MAN_REF_FRAME": 1,
                    "MAN_DV_1": 63722.39,
                    "MAN_DV_2": 62203.35,
                    "MAN_DV_3": 64910.57
                },
                {
                    "MAN_EPOCH_IGNITION": "2067-05-04T01:59:07.823Z",
                    "MAN_DURATION": 87061.2,
                    "MAN_DELTA_MASS": 57292.55,
                    "MAN_REF_FRAME": 1,
                    "MAN_DV_1": 68297.55,
                    "MAN_DV_2": 12416.41,
                    "MAN_DV_3": 3288.43
                }
            ],
            "USER_DEFINED_BIP_0044_TYPE": 519474844,
            "USER_DEFINED_OBJECT_DESIGNATOR": "<#MZvNp<c}",
            "USER_DEFINED_EARTH_MODEL": "'oDQrD*o?_",
            "USER_DEFINED_EPOCH_TIMESTAMP": 52965.76,
            "USER_DEFINED_EPOCH_MICROSECONDS": 43640.1
        },
        {
            "CCSDS_OPM_VERS": 66593.88,
            "CREATION_DATE": "2033-04-02T09:53:36.023Z",
            "ORIGINATOR": "Corwin, Kuhn and Kshlerin",
            "OBJECT_NAME": "-jk$LG]z_B",
            "OBJECT_ID": "jnp]'jz.(S",
            "CENTER_NAME": "yRN=dmbpY]",
            "REF_FRAME": 3,
            "REF_FRAME_EPOCH": "2003-03-30T21:30:55.745Z",
            "TIME_SYSTEM": 9,
            "COMMENT": "[sgmU+|(Yi",
            "EPOCH": "2060-02-18T15:00:52.421Z",
            "X": 56422.42,
            "Y": 1313.48,
            "Z": 31974.05,
            "X_DOT": 62790.13,
            "Y_DOT": 52623.55,
            "Z_DOT": 26938.33,
            "SEMI_MAJOR_AXIS": 807.04,
            "ECCENTRICITY": 87325.38,
            "INCLINATION": 99589.58,
            "RA_OF_ASC_NODE": 63847.28,
            "ARG_OF_PERICENTER": 99484.76,
            "TRUE_ANOMALY": 40401.98,
            "MEAN_ANOMALY": 29963.59,
            "GM": 67325.25,
            "MASS": 40576.28,
            "SOLAR_RAD_AREA": 19337.21,
            "SOLAR_RAD_COEFF": 35544.91,
            "DRAG_AREA": 49164.77,
            "DRAG_COEFF": 50557.95,
            "COV_REF_FRAME": 2,
            "CX_X": 22433.46,
            "CY_X": 94244.4,
            "CY_Y": 72123.35,
            "CZ_X": 95830.85,
            "CZ_Y": 37618.4,
            "CZ_Z": 74395.66,
            "CX_DOT_X": 96283.57,
            "CX_DOT_Y": 58923.96,
            "CX_DOT_Z": 64253.78,
            "CX_DOT_X_DOT": 43657.99,
            "CY_DOT_X": 4928.7,
            "CY_DOT_Y": 36381.04,
            "CY_DOT_Z": 95892.49,
            "CY_DOT_X_DOT": 96340.14,
            "CY_DOT_Y_DOT": 14664.74,
            "CZ_DOT_X": 70478.76,
            "CZ_DOT_Y": 4945.34,
            "CZ_DOT_Z": 37163.75,
            "CZ_DOT_X_DOT": 52662.83,
            "CZ_DOT_Y_DOT": 19831.45,
            "CZ_DOT_Z_DOT": 37503.26,
            "MANEUVERS": [
                {
                    "MAN_EPOCH_IGNITION": "2045-11-07T11:30:13.791Z",
                    "MAN_DURATION": 52945.2,
                    "MAN_DELTA_MASS": 49697.15,
                    "MAN_REF_FRAME": 0,
                    "MAN_DV_1": 3973.95,
                    "MAN_DV_2": 96033.81,
                    "MAN_DV_3": 12511.69
                },
                {
                    "MAN_EPOCH_IGNITION": "2046-11-14T19:32:21.011Z",
                    "MAN_DURATION": 95592.22,
                    "MAN_DELTA_MASS": 71463.76,
                    "MAN_REF_FRAME": 0,
                    "MAN_DV_1": 55080.31,
                    "MAN_DV_2": 77847.75,
                    "MAN_DV_3": 65046.24
                }
            ],
            "USER_DEFINED_BIP_0044_TYPE": 1553350902,
            "USER_DEFINED_OBJECT_DESIGNATOR": "N#8z=ofjB]",
            "USER_DEFINED_EARTH_MODEL": "$)|ayE2/-:",
            "USER_DEFINED_EPOCH_TIMESTAMP": 64714.18,
            "USER_DEFINED_EPOCH_MICROSECONDS": 72029.49
        }
    ]
}